TITAN 4B R/B            
1 26474U 00047B   22323.50914084  .00001211  00000+0  11105-3 0  9992
2 26474  67.9917 157.9372 0058689 301.4302  58.1110 14.97383093211655
ENVISAT                 
1 27386U 02009A   22323.41779272  .00000177  00000+0  71863-4 0  9991
2 27386  98.2036 297.4063 0001319  87.0790  86.2925 14.38186976 85730
IDEFIX & ARIANE 42P R/B 
1 27422U 02021B   22323.28100924  .00000208  00000+0  98047-4 0  9991
2 27422  98.4672 264.7431 0012812 136.2132 224.0069 14.29489204 71570
AQUA                    
1 27424U 02022A   22323.53133521  .00000663  00000+0  15600-3 0  9999
2 27424  98.2635 264.0658 0001933  86.9857  32.7737 14.57475790 92812
CZ-4B R/B               
1 27432U 02024C   22323.32749486  .00000032  00000+0  40373-4 0  9996
2 27432  99.0493 350.5401 0050112 198.4193 172.7454 14.14162561 58718
MIDORI II (ADEOS-II)    
1 27597U 02056A   22323.29342957  .00000206  00000+0  10131-3 0  9992
2 27597  98.6238 264.9496 0000367  26.7035 333.4165 14.27686432 38062
H-2A R/B                
1 27601U 02056E   22323.38646028  .00000236  00000+0  99471-4 0  9992
2 27601  98.1818 321.2597 0072372 158.2392 290.2054 14.32152815 41350
CZ-4B R/B               
1 28059U 03049C   22322.85335757  .00000363  00000+0  98702-4 0  9995
2 28059  98.5348 262.1755 0049120 316.8233  42.9115 14.52891302 11237
CZ-2C R/B               
1 28222U 04012C   22323.54697323  .00003652  00000+0  20128-3 0  9995
2 28222  97.7881 307.5227 0041821 239.8667 189.9253 15.13932313 19694
SL-16 R/B               
1 28353U 04021B   22323.17908544  .00000340  00000+0  20294-3 0  9994
2 28353  71.0013 243.7556 0003157  60.9609 299.1829 14.14287135952229
CZ-4B R/B               
1 28415U 04035C   22323.54801892  .00002094  00000+0  13351-3 0  9991
2 28415  97.4987   0.5619 0048523 206.7251 153.1477 15.08857886996976
CZ-2C R/B               
1 28480U 04046B   22323.41568073  .00000124  00000+0  61425-4 0  9990
2 28480  98.0834 299.0797 0142642 122.9341 238.5653 14.25882383936521
ARIANE 5 R/B            
1 28499U 04049H   22323.57051756  .00000605  00000+0  81154-4 0  9990
2 28499  98.1143  81.8796 0089932 293.7327  76.7673 14.80633515967030
CZ-2D R/B               
1 28738U 05024B   22323.29774251  .00004454  00000+0  24199-3 0  9992
2 28738  97.3537 326.1945 0011440  10.7729 349.3746 15.14945650955184
SUZAKU (ASTRO-EII)      
1 28773U 05025A   22323.48628288  .00007428  00000+0  30329-3 0  9997
2 28773  31.3806   7.1048 0004484 144.4589 215.6359 15.23023978958660
ALOS (DAICHI)           
1 28931U 06002A   22310.47227537 -.00000030  00000+0  29392-5 0  9999
2 28931  97.9551 270.1655 0001426 133.0925 227.0374 14.63410704895190
H-2A R/B                
1 28932U 06002B   22323.25959593  .00001834  00000+0  16580-3 0  9999
2 28932  98.2731  14.1074 0084381 304.3272  54.9981 14.94228068913157
AKARI (ASTRO-F)         
1 28939U 06005A   22322.98954042  .00042739  00000+0  56284-3 0  9996
2 28939  98.1871  57.3322 0055161  81.6354 279.1147 15.56476704917029
CZ-4B R/B               
1 29093U 06015B   22323.39510462  .00052536  00000+0  42603-3 0  9995
2 29093  97.5728 194.4005 0028414 332.6946  27.2820 15.70053189923765
RESURS-DK 1             
1 29228U 06021A   22323.37624525  .00001444  00000+0  11245-3 0  9996
2 29228  69.9348  94.0882 0005477 217.8074 142.2703 15.03652383905668
GENESIS 1               
1 29252U 06029A   22323.20698641  .00005569  00000+0  24193-3 0  9991
2 29252  64.5210 282.4152 0050397 239.2103 120.4057 15.22243165902515
CZ-4B R/B               
1 29507U 06046C   22323.02686174  .00001838  00000+0  14061-3 0  9999
2 29507  97.7150 352.4190 0045809  73.0987 287.5253 15.02354137878071
CZ-2C R/B               
1 31114U 07010B   22323.42162264  .00000093  00000+0  61893-4 0  9999
2 31114  98.2536 125.9404 0059188 205.0263 154.8043 14.19471165808548
COSMO-SKYMED 1          
1 31598U 07023A   22323.54112986  .00000525  00000+0  72494-4 0  9997
2 31598  97.8881 145.0033 0001468  91.9068 268.2347 14.82152185835934
GENESIS 2               
1 31789U 07028A   22323.45998754  .00005539  00000+0  24642-3 0  9990
2 31789  64.4960 325.1686 0058596 291.1723  68.3146 15.21043037849463
COSMOS 2428             
1 31792U 07029A   22323.42822839 -.00000144  00000+0 -52197-4 0  9998
2 31792  70.9517 214.8308 0009428 189.3033 170.7915 14.12598786793739
SL-16 R/B               
1 31793U 07029B   22323.06654306  .00000116  00000+0  85263-4 0  9998
2 31793  70.9744 188.0517 0002027 277.7624 232.3370 14.14484285794722
KORONAS-FOTON           
1 33504U 09003A   22323.41481363  .00004125  00000+0  20017-3 0  9993
2 33504  82.4426  61.2528 0019495  93.3385 267.0079 15.18048066761460
H-2A R/B                
1 38341U 12025E   22322.65549027  .00001253  00000+0  15056-3 0  9998
2 38341  98.4821 188.0320 0053131 270.8489  88.6637 14.85076702568531
CUSAT 2 & FALCON 9 R/B  
1 39271U 13055G   22322.91116870  .00020965  00000+0  42843-3 0  9995
2 39271  80.9574  24.2711 0499226 359.8970   0.2044 14.70236767479404
SHIJIAN-16 (SJ-16)      
1 39358U 13057A   22323.52604549  .00000706  00000+0  82846-4 0  9995
2 39358  74.9740 297.4164 0018049 152.2550 207.9607 14.86442674492031
CZ-2C R/B               
1 39364U 13059B   22322.89711850  .00009768  00000+0  28895-3 0  9997
2 39364  97.1403  11.0661 0041232 136.4126 224.0388 15.34242398503861
SL-4 R/B                
1 39679U 14021B   22323.39074700  .00003190  00000+0  15948-3 0  9996
2 39679  51.6138 313.8741 0162164 137.3605 224.0087 15.09857447472514
ALOS-2                  
1 39766U 14029A   22323.55464589 -.00000086  00000+0 -45887-5 0  9997
2 39766  97.9228  58.4620 0001423  88.9423 271.1974 14.79469608458562
CZ-2C R/B               
1 40306U 14071B   22322.46243274  .00108562  00000+0  53105-3 0  9997
2 40306  97.4263 305.4079 0009898 125.1865 235.0332 15.81921479451056
SL-27 R/B               
1 40354U 14084B   22323.45738993  .00007204  00000+0  14519-3 0  9998
2 40354  74.7375 352.2642 0030331  91.0037 269.4654 15.46167127444531
YAOGAN-29               
1 41038U 15069A   22323.48078055  .00000383  00000+0  56403-4 0  9991
2 41038  98.0617 324.4546 0001190  39.2548 320.8751 14.80991904377232
ASTRO-H (HITOMI)        
1 41337U 16012A   22323.22443523  .00001636  00000+0  12213-3 0  9992
2 41337  31.0035 157.0136 0011830 179.2607 180.8047 14.99851581370379
HXMT (HUIYAN)           
1 42758U 17034A   22323.46219981  .00003779  00000+0  23228-3 0  9998
2 42758  43.0167 215.3083 0009282 184.3970 353.9841 15.11455759299628
CZ-2C R/B               
1 43521U 18054D   22323.45986744  .00004425  00000+0  21996-3 0  9996
2 43521  35.1513 117.1148 0077155  15.7500 344.5592 15.14516462243186
AEOLUS                  
1 43600U 18066A   22323.00090864  .00109978  00000+0  41566-3 0  9991
2 43600  96.7336 326.3769 0008300  96.0205 264.2014 15.87372905245634
SAOCOM 1A               
1 43641U 18076A   22323.54953917 -.00001560  00000+0 -18951-3 0  9995
2 43641  97.8863 148.0397 0001424  90.2490 269.8832 14.82143992222702
H-2A R/B                
1 43682U 18084L   22323.41648506  .00002900  00000+0  20005-3 0  9990
2 43682  98.8959 310.0350 0055297 113.6487 247.0554 15.05595387222622
SAOCOM 1B               
1 46265U 20059A   22323.51316308  .00000353  00000+0  50906-4 0  9992
2 46265  97.8863 147.0646 0001270  71.7279 288.4031 14.82161634120091
CSS (TIANHE)            
1 48274U 21035A   22323.51843523  .00019752  00000+0  25269-3 0  9999
2 48274  41.4786 352.7856 0005827 276.8641 235.7731 15.58726816 89058
2022-019U               
1 51842U 22019U   22323.54033278  .00005722  00000+0  21156-3 0  9991
2 51842  97.5474  42.4002 0065259   5.5384 118.8827 15.26105387 40414
SZ-13 MODULE            
1 52260U 21092C   22323.33006230  .00060241  00000+0  31692-3 0  9994
2 52260  41.4783 335.3948 0012037 168.1037 192.0095 15.79677256 33780
CZ-2C R/B               
1 52794U 22058K   22323.28153113  .00002923  00000+0  16603-3 0  9994
2 52794  50.1719 160.9827 0101189 352.1297   7.8064 15.11974701 25709
